[
  {
    "COMMENT": "GENERATED VIA SPACETRACK.ORG API",
    "ORIGINATOR": "18 SPCS",
    "NORAD_CAT_ID": "48621",
    "OBJECT_NAME": "HAIYANG 2D",
    "OBJECT_TYPE": "PAYLOAD",
    "CLASSIFICATION_TYPE": "U",
    "INTLDES": "21043A",
    "EPOCH": "2022-01-10 11:13:07",
    "EPOCH_MICROSECONDS": "378464",
    "MEAN_MOTION": "13.83375841",
    "ECCENTRICITY": "0.000751",
    "INCLINATION": "65.9983",
    "RA_OF_ASC_NODE": "14.7555",
    "ARG_OF_PERICENTER": "277.0239",
    "MEAN_ANOMALY": "82.9974",
    "EPHEMERIS_TYPE": "0",
    "ELEMENT_SET_NO": "999",
    "REV_AT_EPOCH": "3268",
    "BSTAR": "0.000030971",
    "MEAN_MOTION_DOT": "-0.00000047",
    "MEAN_MOTION_DDOT": "0",
    "FILE": "3268856",
    "TLE_LINE0": "0 HAIYANG 2D",
    "TLE_LINE1": "1 48621U 21043A   22010.46744651 -.00000047  00000-0  30971-4 0  9999",
    "TLE_LINE2": "2 48621  65.9983  14.7555 0007510 277.0239  82.9974 13.83375841 32684",
    "OBJECT_ID": "2021-043A",
    "OBJECT_NUMBER": "48621",
    "SEMIMAJOR_AXIS": "7330.074",
    "PERIOD": "104.093",
    "APOGEE": "957.444",
    "PERIGEE": "946.435",
    "DECAYED": "0"
  },
  {
    "COMMENT": "GENERATED VIA SPACETRACK.ORG API",
    "ORIGINATOR": "18 SPCS",
    "NORAD_CAT_ID": "48621",
    "OBJECT_NAME": "HAIYANG 2D",
    "OBJECT_TYPE": "PAYLOAD",
    "CLASSIFICATION_TYPE": "U",
    "INTLDES": "21043A",
    "EPOCH": "2022-01-10 19:53:38",
    "EPOCH_MICROSECONDS": "681952",
    "MEAN_MOTION": "13.83375807",
    "ECCENTRICITY": "0.0007533",
    "INCLINATION": "65.9983",
    "RA_OF_ASC_NODE": "13.8557",
    "ARG_OF_PERICENTER": "276.9169",
    "MEAN_ANOMALY": "83.1044",
    "EPHEMERIS_TYPE": "0",
    "ELEMENT_SET_NO": "999",
    "REV_AT_EPOCH": "3273",
    "BSTAR": "0.000025031",
    "MEAN_MOTION_DOT": "-0.00000054",
    "MEAN_MOTION_DDOT": "0",
    "FILE": "3269066",
    "TLE_LINE0": "0 HAIYANG 2D",
    "TLE_LINE1": "1 48621U 21043A   22010.82891993 -.00000054  00000-0  25031-4 0  9990",
    "TLE_LINE2": "2 48621  65.9983  13.8557 0007533 276.9169  83.1044 13.83375807 32730",
    "OBJECT_ID": "2021-043A",
    "OBJECT_NUMBER": "48621",
    "SEMIMAJOR_AXIS": "7330.075",
    "PERIOD": "104.093",
    "APOGEE": "957.461",
    "PERIGEE": "946.418",
    "DECAYED": "0"
  },
  {
    "COMMENT": "GENERATED VIA SPACETRACK.ORG API",
    "ORIGINATOR": "18 SPCS",
    "NORAD_CAT_ID": "48621",
    "OBJECT_NAME": "HAIYANG 2D",
    "OBJECT_TYPE": "PAYLOAD",
    "CLASSIFICATION_TYPE": "U",
    "INTLDES": "21043A",
    "EPOCH": "2022-01-10 19:53:38",
    "EPOCH_MICROSECONDS": "681952",
    "MEAN_MOTION": "13.83375807",
    "ECCENTRICITY": "0.0007533",
    "INCLINATION": "65.9983",
    "RA_OF_ASC_NODE": "13.8557",
    "ARG_OF_PERICENTER": "276.9169",
    "MEAN_ANOMALY": "83.1044",
    "EPHEMERIS_TYPE": "0",
    "ELEMENT_SET_NO": "999",
    "REV_AT_EPOCH": "3273",
    "BSTAR": "0.000025031",
    "MEAN_MOTION_DOT": "-0.00000054",
    "MEAN_MOTION_DDOT": "0",
    "FILE": "3269118",
    "TLE_LINE0": "0 HAIYANG 2D",
    "TLE_LINE1": "1 48621U 21043A   22010.82891993 -.00000054  00000-0  25031-4 0  9990",
    "TLE_LINE2": "2 48621  65.9983  13.8557 0007533 276.9169  83.1044 13.83375807 32730",
    "OBJECT_ID": "2021-043A",
    "OBJECT_NUMBER": "48621",
    "SEMIMAJOR_AXIS": "7330.075",
    "PERIOD": "104.093",
    "APOGEE": "957.461",
    "PERIGEE": "946.418",
    "DECAYED": "0"
  },
  {
    "COMMENT": "GENERATED VIA SPACETRACK.ORG API",
    "ORIGINATOR": "18 SPCS",
    "NORAD_CAT_ID": "48621",
    "OBJECT_NAME": "HAIYANG 2D",
    "OBJECT_TYPE": "PAYLOAD",
    "CLASSIFICATION_TYPE": "U",
    "INTLDES": "21043A",
    "EPOCH": "2022-01-11 04:34:09",
    "EPOCH_MICROSECONDS": "980256",
    "MEAN_MOTION": "13.83375724",
    "ECCENTRICITY": "0.0007528",
    "INCLINATION": "65.9985",
    "RA_OF_ASC_NODE": "12.9562",
    "ARG_OF_PERICENTER": "276.8785",
    "MEAN_ANOMALY": "83.1414",
    "EPHEMERIS_TYPE": "0",
    "ELEMENT_SET_NO": "999",
    "REV_AT_EPOCH": "3278",
    "BSTAR": "0.000016777",
    "MEAN_MOTION_DOT": "-0.00000063",
    "MEAN_MOTION_DDOT": "0",
    "FILE": "3269299",
    "TLE_LINE0": "0 HAIYANG 2D",
    "TLE_LINE1": "1 48621U 21043A   22011.19039329 -.00000063  00000-0  16777-4 0  9995",
    "TLE_LINE2": "2 48621  65.9985  12.9562 0007528 276.8785  83.1414 13.83375724 32789",
    "OBJECT_ID": "2021-043A",
    "OBJECT_NUMBER": "48621",
    "SEMIMAJOR_AXIS": "7330.075",
    "PERIOD": "104.093",
    "APOGEE": "957.458",
    "PERIGEE": "946.422",
    "DECAYED": "0"
  },
  {
    "COMMENT": "GENERATED VIA SPACETRACK.ORG API",
    "ORIGINATOR": "18 SPCS",
    "NORAD_CAT_ID": "48621",
    "OBJECT_NAME": "HAIYANG 2D",
    "OBJECT_TYPE": "PAYLOAD",
    "CLASSIFICATION_TYPE": "U",
    "INTLDES": "21043A",
    "EPOCH": "2022-01-11 11:30:35",
    "EPOCH_MICROSECONDS": "41536",
    "MEAN_MOTION": "13.83375775",
    "ECCENTRICITY": "0.0007537",
    "INCLINATION": "65.9983",
    "RA_OF_ASC_NODE": "12.2358",
    "ARG_OF_PERICENTER": "276.8743",
    "MEAN_ANOMALY": "83.1472",
    "EPHEMERIS_TYPE": "0",
    "ELEMENT_SET_NO": "999",
    "REV_AT_EPOCH": "3282",
    "BSTAR": "0.000020635",
    "MEAN_MOTION_DOT": "-0.00000059",
    "MEAN_MOTION_DDOT": "0",
    "FILE": "3269567",
    "TLE_LINE0": "0 HAIYANG 2D",
    "TLE_LINE1": "1 48621U 21043A   22011.47957224 -.00000059  00000-0  20635-4 0  9992",
    "TLE_LINE2": "2 48621  65.9983  12.2358 0007537 276.8743  83.1472 13.83375775 32822",
    "OBJECT_ID": "2021-043A",
    "OBJECT_NUMBER": "48621",
    "SEMIMAJOR_AXIS": "7330.075",
    "PERIOD": "104.093",
    "APOGEE": "957.464",
    "PERIGEE": "946.415",
    "DECAYED": "0"
  },
  {
    "COMMENT": "GENERATED VIA SPACETRACK.ORG API",
    "ORIGINATOR": "18 SPCS",
    "NORAD_CAT_ID": "48621",
    "OBJECT_NAME": "HAIYANG 2D",
    "OBJECT_TYPE": "PAYLOAD",
    "CLASSIFICATION_TYPE": "U",
    "INTLDES": "21043A",
    "EPOCH": "2022-01-11 11:30:35",
    "EPOCH_MICROSECONDS": "41536",
    "MEAN_MOTION": "13.83375775",
    "ECCENTRICITY": "0.0007537",
    "INCLINATION": "65.9983",
    "RA_OF_ASC_NODE": "12.2358",
    "ARG_OF_PERICENTER": "276.8743",
    "MEAN_ANOMALY": "83.1472",
    "EPHEMERIS_TYPE": "0",
    "ELEMENT_SET_NO": "999",
    "REV_AT_EPOCH": "3282",
    "BSTAR": "0.000020635",
    "MEAN_MOTION_DOT": "-0.00000059",
    "MEAN_MOTION_DDOT": "0",
    "FILE": "3269657",
    "TLE_LINE0": "0 HAIYANG 2D",
    "TLE_LINE1": "1 48621U 21043A   22011.47957224 -.00000059  00000-0  20635-4 0  9992",
    "TLE_LINE2": "2 48621  65.9983  12.2358 0007537 276.8743  83.1472 13.83375775 32822",
    "OBJECT_ID": "2021-043A",
    "OBJECT_NUMBER": "48621",
    "SEMIMAJOR_AXIS": "7330.075",
    "PERIOD": "104.093",
    "APOGEE": "957.464",
    "PERIGEE": "946.415",
    "DECAYED": "0"
  },
  {
    "COMMENT": "GENERATED VIA SPACETRACK.ORG API",
    "ORIGINATOR": "18 SPCS",
    "NORAD_CAT_ID": "48621",
    "OBJECT_NAME": "HAIYANG 2D",
    "OBJECT_TYPE": "PAYLOAD",
    "CLASSIFICATION_TYPE": "U",
    "INTLDES": "21043A",
    "EPOCH": "2022-01-11 18:27:00",
    "EPOCH_MICROSECONDS": "77760",
    "MEAN_MOTION": "13.83375789",
    "ECCENTRICITY": "0.0007534",
    "INCLINATION": "65.9983",
    "RA_OF_ASC_NODE": "11.5162",
    "ARG_OF_PERICENTER": "276.9181",
    "MEAN_ANOMALY": "83.103",
    "EPHEMERIS_TYPE": "0",
    "ELEMENT_SET_NO": "999",
    "REV_AT_EPOCH": "3286",
    "BSTAR": "0.000019711",
    "MEAN_MOTION_DOT": "-0.0000006",
    "MEAN_MOTION_DDOT": "0",
    "FILE": "3269909",
    "TLE_LINE0": "0 HAIYANG 2D",
    "TLE_LINE1": "1 48621U 21043A   22011.76875090 -.00000060  00000-0  19711-4 0  9999",
    "TLE_LINE2": "2 48621  65.9983  11.5162 0007534 276.9181  83.1030 13.83375789 32860",
    "OBJECT_ID": "2021-043A",
    "OBJECT_NUMBER": "48621",
    "SEMIMAJOR_AXIS": "7330.075",
    "PERIOD": "104.093",
    "APOGEE": "957.462",
    "PERIGEE": "946.417",
    "DECAYED": "0"
  },
  {
    "COMMENT": "GENERATED VIA SPACETRACK.ORG API",
    "ORIGINATOR": "18 SPCS",
    "NORAD_CAT_ID": "48621",
    "OBJECT_NAME": "HAIYANG 2D",
    "OBJECT_TYPE": "PAYLOAD",
    "CLASSIFICATION_TYPE": "U",
    "INTLDES": "21043A",
    "EPOCH": "2022-01-11 18:27:00",
    "EPOCH_MICROSECONDS": "77760",
    "MEAN_MOTION": "13.83375789",
    "ECCENTRICITY": "0.0007534",
    "INCLINATION": "65.9983",
    "RA_OF_ASC_NODE": "11.5162",
    "ARG_OF_PERICENTER": "276.9181",
    "MEAN_ANOMALY": "83.103",
    "EPHEMERIS_TYPE": "0",
    "ELEMENT_SET_NO": "999",
    "REV_AT_EPOCH": "3286",
    "BSTAR": "0.000019711",
    "MEAN_MOTION_DOT": "-0.0000006",
    "MEAN_MOTION_DDOT": "0",
    "FILE": "3269987",
    "TLE_LINE0": "0 HAIYANG 2D",
    "TLE_LINE1": "1 48621U 21043A   22011.76875090 -.00000060  00000-0  19711-4 0  9999",
    "TLE_LINE2": "2 48621  65.9983  11.5162 0007534 276.9181  83.1030 13.83375789 32860",
    "OBJECT_ID": "2021-043A",
    "OBJECT_NUMBER": "48621",
    "SEMIMAJOR_AXIS": "7330.075",
    "PERIOD": "104.093",
    "APOGEE": "957.462",
    "PERIGEE": "946.417",
    "DECAYED": "0"
  }
]